TIGRISAT                
1 40043U 14033AK  26115.89668513  .00002179  00000+0  25709-3 0  9997
2 40043  97.7765 267.1342 0048204 245.4398 114.1789 14.84934047637867
AEROCUBE 6A             
1 40045U 14033AM  26115.91475391  .00007643  00000+0  65072-3 0  9990
2 40045  97.7187 283.4569 0038926 189.3742 170.6758 14.97480434638794
AEROCUBE 6B             
1 40046U 14033AN  26115.70025081  .00006519  00000+0  53649-3 0  9993
2 40046  97.7193 282.9303 0037012 180.5963 179.5222 14.98910221638893
CANX-4                  
1 40055U 14034C   26115.59571745  .00000777  00000+0  10715-3 0  9991
2 40055  98.3195 348.9616 0012818 174.3382 185.7976 14.81165309636743
CANX-5                  
1 40056U 14034D   26115.59475656  .00000775  00000+0  10686-3 0  9991
2 40056  98.3197 349.0010 0012806 174.5873 185.5479 14.81182288627550
UKUBE-1                 
1 40074U 14037F   26115.72740034  .00009007  00000+0  51855-3 0  9994
2 40074  98.4249 113.5262 0001899  46.4173 313.7213 15.12701204640626
BRITE-PL2 (HEWELIUSZ)   
1 40119U 14049B   26115.88146838  .00001689  00000+0  16222-3 0  9993
2 40119  97.9035 227.5041 0012693 284.5467  75.4344 14.94395237633633
AEROCUBE 5C             
1 40965U 15058B   26115.93127302  .00003776  00000+0  33817-3 0  9992
2 40965  64.7675  65.1152 0129608  83.7776 277.8082 14.91136317357864
AEROCUBE 7              
1 40966U 15058C   26115.94118289  .00005642  00000+0  45635-3 0  9993
2 40966  64.7634  48.4068 0119508  82.5660 278.9015 14.95286488358146
FOX-1A (AO-85)          
1 40967U 15058D   26115.96168943  .00003841  00000+0  34908-3 0  9998
2 40967  64.7745  81.2419 0128560  77.0542 284.4891 14.90639389105782
SINOD-D 1               
1 40968U 15058E   26115.85844160  .00005900  00000+0  47706-3 0  9997
2 40968  64.7754  62.7291 0117076  73.9819 287.4153 14.95454933108835
SNAP-3 ALICE            
1 40970U 15058G   26115.82101799  .00078990  00000+0  13260-2 0  9997
2 40970  64.7539 283.5367 0031486  44.9461 315.4221 15.50776070108746
LMRST-SAT               
1 40971U 15058H   26115.90383985  .00003675  00000+0  33646-3 0  9995
2 40971  64.7753  77.6616 0130427  79.1084 282.4673 14.90267836105761
SNAP-3 EDDIE            
1 40972U 15058J   26115.78585681  .00077332  00000+0  12483-2 0  9995
2 40972  64.7458 274.7483 0032223  48.6199 311.7705 15.51850008110876
PROPCUBE 3              
1 40973U 15058K   26115.93287689  .00004886  00000+0  40938-3 0  9991
2 40973  64.7694  55.7490 0122691  80.6701 280.8261 14.93870389106998
BISONSAT                
1 40974U 15058L   26115.84049006  .00014539  00000+0  72623-3 0  9993
2 40974  64.7621 342.7367 0077696  70.7327 290.2180 15.15042843107682
