[{"OBJECT_NAME":"TIGRISAT","OBJECT_ID":"2014-033AK","EPOCH":"2026-04-25T21:31:13.595232","MEAN_MOTION":14.84934047,"ECCENTRICITY":0.00482046,"INCLINATION":97.7765,"RA_OF_ASC_NODE":267.1342,"ARG_OF_PERICENTER":245.4398,"MEAN_ANOMALY":114.1789,"EPHEMERIS_TYPE":0,"CLASSIFICATION_TYPE":"U","NORAD_CAT_ID":40043,"ELEMENT_SET_NO":999,"REV_AT_EPOCH":63786,"BSTAR":0.00025708708,"MEAN_MOTION_DOT":2.179e-5,"MEAN_MOTION_DDOT":0},{"OBJECT_NAME":"AEROCUBE 6A","OBJECT_ID":"2014-033AM","EPOCH":"2026-04-25T21:57:14.737824","MEAN_MOTION":14.97480434,"ECCENTRICITY":0.00389268,"INCLINATION":97.7187,"RA_OF_ASC_NODE":283.4569,"ARG_OF_PERICENTER":189.3742,"MEAN_ANOMALY":170.6758,"EPHEMERIS_TYPE":0,"CLASSIFICATION_TYPE":"U","NORAD_CAT_ID":40045,"ELEMENT_SET_NO":999,"REV_AT_EPOCH":63879,"BSTAR":0.00065072482,"MEAN_MOTION_DOT":7.643e-5,"MEAN_MOTION_DDOT":0},{"OBJECT_NAME":"AEROCUBE 6B","OBJECT_ID":"2014-033AN","EPOCH":"2026-04-25T16:48:21.669984","MEAN_MOTION":14.98910221,"ECCENTRICITY":0.00370123,"INCLINATION":97.7193,"RA_OF_ASC_NODE":282.9303,"ARG_OF_PERICENTER":180.5963,"MEAN_ANOMALY":179.5222,"EPHEMERIS_TYPE":0,"CLASSIFICATION_TYPE":"U","NORAD_CAT_ID":40046,"ELEMENT_SET_NO":999,"REV_AT_EPOCH":63889,"BSTAR":0.0005364922,"MEAN_MOTION_DOT":6.519e-5,"MEAN_MOTION_DDOT":0},{"OBJECT_NAME":"CANX-4","OBJECT_ID":"2014-034C","EPOCH":"2026-04-25T14:17:49.987680","MEAN_MOTION":14.81165309,"ECCENTRICITY":0.00128182,"INCLINATION":98.3195,"RA_OF_ASC_NODE":348.9616,"ARG_OF_PERICENTER":174.3382,"MEAN_ANOMALY":185.7976,"EPHEMERIS_TYPE":0,"CLASSIFICATION_TYPE":"U","NORAD_CAT_ID":40055,"ELEMENT_SET_NO":999,"REV_AT_EPOCH":63674,"BSTAR":0.00010714859,"MEAN_MOTION_DOT":7.77e-6,"MEAN_MOTION_DDOT":0},{"OBJECT_NAME":"CANX-5","OBJECT_ID":"2014-034D","EPOCH":"2026-04-25T14:16:26.966784","MEAN_MOTION":14.81182288,"ECCENTRICITY":0.00128069,"INCLINATION":98.3197,"RA_OF_ASC_NODE":349.001,"ARG_OF_PERICENTER":174.5873,"MEAN_ANOMALY":185.5479,"EPHEMERIS_TYPE":0,"CLASSIFICATION_TYPE":"U","NORAD_CAT_ID":40056,"ELEMENT_SET_NO":999,"REV_AT_EPOCH":62755,"BSTAR":0.00010685527,"MEAN_MOTION_DOT":7.75e-6,"MEAN_MOTION_DDOT":0},{"OBJECT_NAME":"UKUBE-1","OBJECT_ID":"2014-037F","EPOCH":"2026-04-25T17:27:27.389376","MEAN_MOTION":15.12701204,"ECCENTRICITY":0.00018993,"INCLINATION":98.4249,"RA_OF_ASC_NODE":113.5262,"ARG_OF_PERICENTER":46.4173,"MEAN_ANOMALY":313.7213,"EPHEMERIS_TYPE":0,"CLASSIFICATION_TYPE":"U","NORAD_CAT_ID":40074,"ELEMENT_SET_NO":999,"REV_AT_EPOCH":64062,"BSTAR":0.00051855216,"MEAN_MOTION_DOT":9.007e-5,"MEAN_MOTION_DDOT":0},{"OBJECT_NAME":"BRITE-PL2 (HEWELIUSZ)","OBJECT_ID":"2014-049B","EPOCH":"2026-04-25T21:09:18.868032","MEAN_MOTION":14.94395237,"ECCENTRICITY":0.00126939,"INCLINATION":97.9035,"RA_OF_ASC_NODE":227.5041,"ARG_OF_PERICENTER":284.5467,"MEAN_ANOMALY":75.4344,"EPHEMERIS_TYPE":0,"CLASSIFICATION_TYPE":"U","NORAD_CAT_ID":40119,"ELEMENT_SET_NO":999,"REV_AT_EPOCH":63363,"BSTAR":0.00016221872,"MEAN_MOTION_DOT":1.689e-5,"MEAN_MOTION_DDOT":0},{"OBJECT_NAME":"AEROCUBE 5C","OBJECT_ID":"2015-058B","EPOCH":"2026-04-25T22:21:01.988928","MEAN_MOTION":14.91136317,"ECCENTRICITY":0.01296085,"INCLINATION":64.7675,"RA_OF_ASC_NODE":65.1152,"ARG_OF_PERICENTER":83.7776,"MEAN_ANOMALY":277.8082,"EPHEMERIS_TYPE":0,"CLASSIFICATION_TYPE":"U","NORAD_CAT_ID":40965,"ELEMENT_SET_NO":999,"REV_AT_EPOCH":35786,"BSTAR":0.00033817182,"MEAN_MOTION_DOT":3.776e-5,"MEAN_MOTION_DDOT":0},{"OBJECT_NAME":"AEROCUBE 7","OBJECT_ID":"2015-058C","EPOCH":"2026-04-25T22:35:18.201696","MEAN_MOTION":14.95286488,"ECCENTRICITY":0.01195088,"INCLINATION":64.7634,"RA_OF_ASC_NODE":48.4068,"ARG_OF_PERICENTER":82.566,"MEAN_ANOMALY":278.9015,"EPHEMERIS_TYPE":0,"CLASSIFICATION_TYPE":"U","NORAD_CAT_ID":40966,"ELEMENT_SET_NO":999,"REV_AT_EPOCH":35814,"BSTAR":0.00045635373,"MEAN_MOTION_DOT":5.642e-5,"MEAN_MOTION_DDOT":0},{"OBJECT_NAME":"FOX-1A (AO-85)","OBJECT_ID":"2015-058D","EPOCH":"2026-04-25T23:04:49.966752","MEAN_MOTION":14.90639389,"ECCENTRICITY":0.01285603,"INCLINATION":64.7745,"RA_OF_ASC_NODE":81.2419,"ARG_OF_PERICENTER":77.0542,"MEAN_ANOMALY":284.4891,"EPHEMERIS_TYPE":0,"CLASSIFICATION_TYPE":"U","NORAD_CAT_ID":40967,"ELEMENT_SET_NO":999,"REV_AT_EPOCH":10578,"BSTAR":0.00034908319,"MEAN_MOTION_DOT":3.841e-5,"MEAN_MOTION_DDOT":0},{"OBJECT_NAME":"SINOD-D 1","OBJECT_ID":"2015-058E","EPOCH":"2026-04-25T20:36:09.354240","MEAN_MOTION":14.95454933,"ECCENTRICITY":0.01170761,"INCLINATION":64.7754,"RA_OF_ASC_NODE":62.7291,"ARG_OF_PERICENTER":73.9819,"MEAN_ANOMALY":287.4153,"EPHEMERIS_TYPE":0,"CLASSIFICATION_TYPE":"U","NORAD_CAT_ID":40968,"ELEMENT_SET_NO":999,"REV_AT_EPOCH":10883,"BSTAR":0.0004770603,"MEAN_MOTION_DOT":5.9e-5,"MEAN_MOTION_DDOT":0},{"OBJECT_NAME":"SNAP-3 ALICE","OBJECT_ID":"2015-058G","EPOCH":"2026-04-25T19:42:15.954336","MEAN_MOTION":15.5077607,"ECCENTRICITY":0.00314862,"INCLINATION":64.7539,"RA_OF_ASC_NODE":283.5367,"ARG_OF_PERICENTER":44.9461,"MEAN_ANOMALY":315.4221,"EPHEMERIS_TYPE":0,"CLASSIFICATION_TYPE":"U","NORAD_CAT_ID":40970,"ELEMENT_SET_NO":999,"REV_AT_EPOCH":10874,"BSTAR":0.0013260499,"MEAN_MOTION_DOT":0.0007899,"MEAN_MOTION_DDOT":0},{"OBJECT_NAME":"LMRST-SAT","OBJECT_ID":"2015-058H","EPOCH":"2026-04-25T21:41:31.763040","MEAN_MOTION":14.90267836,"ECCENTRICITY":0.01304273,"INCLINATION":64.7753,"RA_OF_ASC_NODE":77.6616,"ARG_OF_PERICENTER":79.1084,"MEAN_ANOMALY":282.4673,"EPHEMERIS_TYPE":0,"CLASSIFICATION_TYPE":"U","NORAD_CAT_ID":40971,"ELEMENT_SET_NO":999,"REV_AT_EPOCH":10576,"BSTAR":0.00033646415,"MEAN_MOTION_DOT":3.675e-5,"MEAN_MOTION_DDOT":0},{"OBJECT_NAME":"SNAP-3 EDDIE","OBJECT_ID":"2015-058J","EPOCH":"2026-04-25T18:51:38.028384","MEAN_MOTION":15.51850008,"ECCENTRICITY":0.00322232,"INCLINATION":64.7458,"RA_OF_ASC_NODE":274.7483,"ARG_OF_PERICENTER":48.6199,"MEAN_ANOMALY":311.7705,"EPHEMERIS_TYPE":0,"CLASSIFICATION_TYPE":"U","NORAD_CAT_ID":40972,"ELEMENT_SET_NO":999,"REV_AT_EPOCH":11087,"BSTAR":0.0012482534,"MEAN_MOTION_DOT":0.00077332,"MEAN_MOTION_DDOT":0},{"OBJECT_NAME":"PROPCUBE 3","OBJECT_ID":"2015-058K","EPOCH":"2026-04-25T22:23:20.563296","MEAN_MOTION":14.93870389,"ECCENTRICITY":0.01226915,"INCLINATION":64.7694,"RA_OF_ASC_NODE":55.749,"ARG_OF_PERICENTER":80.6701,"MEAN_ANOMALY":280.8261,"EPHEMERIS_TYPE":0,"CLASSIFICATION_TYPE":"U","NORAD_CAT_ID":40973,"ELEMENT_SET_NO":999,"REV_AT_EPOCH":10699,"BSTAR":0.00040937815,"MEAN_MOTION_DOT":4.886e-5,"MEAN_MOTION_DDOT":0},{"OBJECT_NAME":"BISONSAT","OBJECT_ID":"2015-058L","EPOCH":"2026-04-25T20:10:18.341184","MEAN_MOTION":15.15042843,"ECCENTRICITY":0.0077696,"INCLINATION":64.7621,"RA_OF_ASC_NODE":342.7367,"ARG_OF_PERICENTER":70.7327,"MEAN_ANOMALY":290.218,"EPHEMERIS_TYPE":0,"CLASSIFICATION_TYPE":"U","NORAD_CAT_ID":40974,"ELEMENT_SET_NO":999,"REV_AT_EPOCH":10768,"BSTAR":0.00072623382,"MEAN_MOTION_DOT":0.00014539,"MEAN_MOTION_DDOT":0}]
